{
  "type": "FeatureCollection",
  "features": [
    {
      "type": "Feature",
      "properties": {
        "norad_id": 66649,
        "name": "COSMOS 2599 (RODNIK-S 24)",
        "group": "last-30-days",
        "lat": -28.495150779504684,
        "lon": 113.74846256165448,
        "alt_km": 1506.6426630669812,
        "timestamp": "2025-12-07T14:37:03.995378+00:00",
        "meta_object_name": "COSMOS 2599 (RODNIK-S 24)",
        "meta_object_id": "2025-273C",
        "meta_epoch": "2025-12-06T22:01:33.772800",
        "meta_mean_motion": 12.41671814,
        "meta_eccentricity": 0.00082435,
        "meta_inclination": 82.5021,
        "meta_ra_of_asc_node": 290.0779,
        "meta_arg_of_pericenter": 313.4418,
        "meta_mean_anomaly": 46.5975,
        "meta_ephemeris_type": 0,
        "meta_classification_type": "U",
        "meta_norad_cat_id": 66649,
        "meta_element_set_no": 999,
        "meta_rev_at_epoch": 141,
        "meta_bstar": 4.6176361e-05,
        "meta_mean_motion_dot": 1.6e-07,
        "meta_mean_motion_ddot": 0,
        "tle_line1": "1 66649U 25273C   25340.91775200  .00000016  00000+0  46176-4 0  9999",
        "tle_line2": "2 66649  82.5021 290.0779 0008243 313.4418  46.5975 12.41671814  1413"
      },
      "geometry": {
        "type": "Point",
        "coordinates": [
          113.74846256165448,
          -28.495150779504684
        ]
      }
    },
    {
      "type": "Feature",
      "properties": {
        "norad_id": 66650,
        "name": "BEE-1000",
        "group": "last-30-days",
        "lat": 61.43189801329214,
        "lon": 103.35328367280749,
        "alt_km": 593.439323317516,
        "timestamp": "2025-12-07T14:37:03.995388+00:00",
        "meta_object_name": "BEE-1000",
        "meta_object_id": "2025-274A",
        "meta_epoch": "2025-12-06T18:46:20.231904",
        "meta_mean_motion": 14.91630145,
        "meta_eccentricity": 0.00104591,
        "meta_inclination": 97.7385,
        "meta_ra_of_asc_node": 268.0797,
        "meta_arg_of_pericenter": 274.4491,
        "meta_mean_anomaly": 85.5533,
        "meta_ephemeris_type": 0,
        "meta_classification_type": "U",
        "meta_norad_cat_id": 66650,
        "meta_element_set_no": 999,
        "meta_rev_at_epoch": 151,
        "meta_bstar": 0.00028243765,
        "meta_mean_motion_dot": 2.783e-05,
        "meta_mean_motion_ddot": 0,
        "tle_line1": "1 66650U 25274A   25340.78217861  .00002783  00000+0  28244-3 0  9999",
        "tle_line2": "2 66650  97.7385 268.0797 0010459 274.4491  85.5533 14.91630145  1513"
      },
      "geometry": {
        "type": "Point",
        "coordinates": [
          103.35328367280749,
          61.43189801329214
        ]
      }
    },
    {
      "type": "Feature",
      "properties": {
        "norad_id": 66651,
        "name": "2025-274B",
        "group": "last-30-days",
        "lat": 58.76895086261216,
        "lon": 101.85102788526481,
        "alt_km": 593.3968745702023,
        "timestamp": "2025-12-07T14:37:03.995399+00:00",
        "meta_object_name": "2025-274B",
        "meta_object_id": "2025-274B",
        "meta_epoch": "2025-12-06T18:45:40.493088",
        "meta_mean_motion": 14.91729352,
        "meta_eccentricity": 0.00107337,
        "meta_inclination": 97.7387,
        "meta_ra_of_asc_node": 268.0793,
        "meta_arg_of_pericenter": 274.0967,
        "meta_mean_anomaly": 85.9024,
        "meta_ephemeris_type": 0,
        "meta_classification_type": "U",
        "meta_norad_cat_id": 66651,
        "meta_element_set_no": 999,
        "meta_rev_at_epoch": 151,
        "meta_bstar": 0.00062427055,
        "meta_mean_motion_dot": 6.238e-05,
        "meta_mean_motion_ddot": 0,
        "tle_line1": "1 66651U 25274B   25340.78171867  .00006238  00000+0  62427-3 0  9995",
        "tle_line2": "2 66651  97.7387 268.0793 0010733 274.0967  85.9024 14.91729352  1519"
      },
      "geometry": {
        "type": "Point",
        "coordinates": [
          101.85102788526481,
          58.76895086261216
        ]
      }
    },
    {
      "type": "Feature",
      "properties": {
        "norad_id": 66652,
        "name": "2025-274C",
        "group": "last-30-days",
        "lat": 53.28268372827687,
        "lon": 99.40024866706236,
        "alt_km": 593.5738791296772,
        "timestamp": "2025-12-07T14:37:03.995409+00:00",
        "meta_object_name": "2025-274C",
        "meta_object_id": "2025-274C",
        "meta_epoch": "2025-12-06T18:44:15.825408",
        "meta_mean_motion": 14.91857241,
        "meta_eccentricity": 0.00104263,
        "meta_inclination": 97.7391,
        "meta_ra_of_asc_node": 268.0813,
        "meta_arg_of_pericenter": 280.9539,
        "meta_mean_anomaly": 79.0506,
        "meta_ephemeris_type": 0,
        "meta_classification_type": "U",
        "meta_norad_cat_id": 66652,
        "meta_element_set_no": 999,
        "meta_rev_at_epoch": 151,
        "meta_bstar": 0.00042219434,
        "meta_mean_motion_dot": 4.213e-05,
        "meta_mean_motion_ddot": 0,
        "tle_line1": "1 66652U 25274C   25340.78073872  .00004213  00000+0  42219-3 0  9991",
        "tle_line2": "2 66652  97.7391 268.0813 0010426 280.9539  79.0506 14.91857241  1516"
      },
      "geometry": {
        "type": "Point",
        "coordinates": [
          99.40024866706236,
          53.28268372827687
        ]
      }
    },
    {
      "type": "Feature",
      "properties": {
        "norad_id": 66653,
        "name": "2025-274D",
        "group": "last-30-days",
        "lat": 53.0193845449752,
        "lon": 99.2989664968071,
        "alt_km": 593.7837730536412,
        "timestamp": "2025-12-07T14:37:03.995419+00:00",
        "meta_object_name": "2025-274D",
        "meta_object_id": "2025-274D",
        "meta_epoch": "2025-12-06T18:44:11.238432",
        "meta_mean_motion": 14.918606,
        "meta_eccentricity": 0.00112399,
        "meta_inclination": 97.7389,
        "meta_ra_of_asc_node": 268.0815,
        "meta_arg_of_pericenter": 276.5881,
        "meta_mean_anomaly": 83.4058,
        "meta_ephemeris_type": 0,
        "meta_classification_type": "U",
        "meta_norad_cat_id": 66653,
        "meta_element_set_no": 999,
        "meta_rev_at_epoch": 151,
        "meta_bstar": 0.00037475306,
        "meta_mean_motion_dot": 3.734e-05,
        "meta_mean_motion_ddot": 0,
        "tle_line1": "1 66653U 25274D   25340.78068563  .00003734  00000+0  37475-3 0  9998",
        "tle_line2": "2 66653  97.7389 268.0815 0011239 276.5881  83.4058 14.91860600  1514"
      },
      "geometry": {
        "type": "Point",
        "coordinates": [
          99.2989664968071,
          53.0193845449752
        ]
      }
    },
    {
      "type": "Feature",
      "properties": {
        "norad_id": 66654,
        "name": "JACK E",
        "group": "last-30-days",
        "lat": 46.705446037991464,
        "lon": 97.19719199548132,
        "alt_km": 594.0529085316575,
        "timestamp": "2025-12-07T14:37:03.995431+00:00",
        "meta_object_name": "JACK E",
        "meta_object_id": "2025-274E",
        "meta_epoch": "2025-12-06T18:42:35.432064",
        "meta_mean_motion": 14.92032592,
        "meta_eccentricity": 0.00118202,
        "meta_inclination": 97.7393,
        "meta_ra_of_asc_node": 268.0833,
        "meta_arg_of_pericenter": 278.1013,
        "meta_mean_anomaly": 81.8865,
        "meta_ephemeris_type": 0,
        "meta_classification_type": "U",
        "meta_norad_cat_id": 66654,
        "meta_element_set_no": 999,
        "meta_rev_at_epoch": 151,
        "meta_bstar": 0.00043780536,
        "meta_mean_motion_dot": 4.392e-05,
        "meta_mean_motion_ddot": 0,
        "tle_line1": "1 66654U 25274E   25340.77957676  .00004392  00000+0  43781-3 0  9998",
        "tle_line2": "2 66654  97.7393 268.0833 0011820 278.1013  81.8865 14.92032592  1511"
      },
      "geometry": {
        "type": "Point",
        "coordinates": [
          97.19719199548132,
          46.705446037991464
        ]
      }
    },
    {
      "type": "Feature",
      "properties": {
        "norad_id": 66655,
        "name": "2025-274F",
        "group": "last-30-days",
        "lat": 38.964714163507054,
        "lon": 95.21164740126166,
        "alt_km": 591.9128325782049,
        "timestamp": "2025-12-07T14:37:03.995441+00:00",
        "meta_object_name": "2025-274F",
        "meta_object_id": "2025-274F",
        "meta_epoch": "2025-12-06T20:17:23.702208",
        "meta_mean_motion": 14.92429092,
        "meta_eccentricity": 0.00065248,
        "meta_inclination": 97.7352,
        "meta_ra_of_asc_node": 268.1503,
        "meta_arg_of_pericenter": 318.9562,
        "meta_mean_anomaly": 41.1166,
        "meta_ephemeris_type": 0,
        "meta_classification_type": "U",
        "meta_norad_cat_id": 66655,
        "meta_element_set_no": 999,
        "meta_rev_at_epoch": 152,
        "meta_bstar": 0.0016472003,
        "meta_mean_motion_dot": 0.0001686,
        "meta_mean_motion_ddot": 0,
        "tle_line1": "1 66655U 25274F   25340.84541322  .00016860  00000+0  16472-2 0  9993",
        "tle_line2": "2 66655  97.7352 268.1503 0006524 318.9562  41.1166 14.92429092  1528"
      },
      "geometry": {
        "type": "Point",
        "coordinates": [
          95.21164740126166,
          38.964714163507054
        ]
      }
    }
  ]
}